STARLINK-32813          
1 62869U 25022R   26068.47026327  .00031243  00000+0  10629-2 0  9997
2 62869  53.1580 130.8391 0001390  88.0530 272.0630 15.30188357 61869
NUSHSAT1                
1 63211U 25052B   26068.64700493  .00023034  00000+0  74857-3 0  9997
2 63211  97.4095 325.7239 0005501  84.7512 275.4357 15.31903202 54882
